NORAD_CAT_ID,OBJECT_NAME,OBJECT_TYPE,EPOCH,MEAN_MOTION,ECCENTRICITY,INCLINATION,RA_OF_ASC_NODE,ARG_OF_PERICENTER,MEAN_ANOMALY,BSTAR,MEAN_MOTION_DOT,MEAN_MOTION_DDOT,TLE_LINE0,TLE_LINE1,TLE_LINE2,SEMIMAJOR_AXIS,PERIOD,APOGEE,PERIGEE,DECAYED
55433.0,STARLINK-5570,PAYLOAD,2024-04-16 04:54:12,14.9833764,0.0002635,70.0013,50.3564,264.2608,95.825,7.4179e-05,7.92e-06,0.0,0 STARLINK-5570,1 55433U 23014AU  24107.20431571  .00000792  00000-0  74179-4 0  9997,2 55433  70.0013  50.3564 0002635 264.2608  95.8250 14.98337640 66400,6950.169,96.107,573.866,570.203,0.0
55433.0,STARLINK-5570,PAYLOAD,2024-04-16 12:54:53,14.9833726,0.0002543,70.0018,49.5167,267.1841,92.9027,4.0431e-05,3.9e-06,0.0,0 STARLINK-5570,1 55433U 23014AU  24107.53811585  .00000390  00000-0  40431-4 0  9998,2 55433  70.0018  49.5167 0002543 267.1841  92.9027 14.98337260 67390,6950.17,96.107,573.803,570.268,0.0
55433.0,STARLINK-5570,PAYLOAD,2024-04-16 22:31:41,14.98337327,0.0002679,70.0023,48.5055,269.056,91.0292,0.00012982,1.457e-05,0.0,0 STARLINK-5570,1 55433U 23014AU  24107.93867077  .00001457  00000-0  12982-3 0  9993,2 55433  70.0023  48.5055 0002679 269.0560  91.0292 14.98337327 67455,6950.17,96.107,573.897,570.173,0.0
55433.0,STARLINK-5570,PAYLOAD,2024-04-17 04:56:12,14.98350098,0.0002545,70.0016,47.8316,272.0652,88.0215,0.00016694,1.9e-05,0.0,0 STARLINK-5570,1 55433U 23014AU  24108.20570045  .00001900  00000-0  16694-3 0  9997,2 55433  70.0016  47.8316 0002545 272.0652  88.0215 14.98350098 66558,6950.131,96.106,573.765,570.227,0.0
55433.0,STARLINK-5570,PAYLOAD,2024-04-17 20:57:35,14.98315612,0.0002922,70.002,46.1501,259.1004,100.9827,-7.3821e-05,-9.73e-06,0.0,0 STARLINK-5570,1 55433U 23014AU  24108.87332753 -.00000973  00000-0 -73821-4 0  9999,2 55433  70.0020  46.1501 0002922 259.1004 100.9827 14.98315612 67598,6950.237,96.108,574.133,570.072,0.0
55433.0,STARLINK-5570,PAYLOAD,2024-04-18 03:22:08,14.98313315,0.0002809,70.0014,45.4771,255.0421,105.0427,-0.00019439,-2.411e-05,0.0,0 STARLINK-5570,1 55433U 23014AU  24109.14037438 -.00002411  00000-0 -19439-3 0  9995,2 55433  70.0014  45.4771 0002809 255.0421 105.0427 14.98313315 66694,6950.244,96.108,574.062,570.157,0.0
55433.0,STARLINK-5570,PAYLOAD,2024-04-18 06:34:24,14.98313933,0.0002845,70.0015,45.1404,251.8414,108.2435,-0.00018128,-2.254e-05,0.0,0 STARLINK-5570,1 55433U 23014AU  24109.27389473 -.00002254  00000-0 -18128-3 0  9997,2 55433  70.0015  45.1404 0002845 251.8414 108.2435 14.98313933 67658,6950.243,96.108,574.085,570.13,0.0
55433.0,STARLINK-5570,PAYLOAD,2024-04-18 20:59:37,14.98320348,0.0002824,70.0015,43.6261,254.5533,105.5314,-0.00012781,-1.617e-05,0.0,0 STARLINK-5570,1 55433U 23014AU  24109.87473442 -.00001617  00000-0 -12781-3 0  9994,2 55433  70.0015  43.6261 0002824 254.5533 105.5314 14.98320348 66801,6950.223,96.108,574.05,570.125,0.0
55433.0,STARLINK-5570,PAYLOAD,2024-04-18 22:35:45,14.98321592,0.0002743,70.0016,43.4573,255.9942,104.0912,-0.00012228,-1.551e-05,0.0,0 STARLINK-5570,1 55433U 23014AU  24109.94149432 -.00001551  00000-0 -12228-3 0  9994,2 55433  70.0016  43.4573 0002743 255.9942 104.0912 14.98321592 67750,6950.219,96.108,573.99,570.177,0.0
55433.0,STARLINK-5570,PAYLOAD,2024-04-19 05:00:16,14.98335446,0.0002464,70.0024,42.7827,253.4115,106.6774,-2.8528e-06,-1.27e-06,0.0,0 STARLINK-5570,1 55433U 23014AU  24110.20852507 -.00000127  00000-0 -28528-5 0  9999,2 55433  70.0024  42.7827 0002464 253.4115 106.6774 14.98335446 66855,6950.176,96.107,573.754,570.329,0.0
55433.0,STARLINK-5570,PAYLOAD,2024-04-19 22:37:45,14.98349791,0.0002781,70.0032,40.9312,253.5879,106.4975,0.0010312,0.00012239,0.0,0 STARLINK-5570,1 55433U 23014AU  24110.94288376  .00012239  00000-0  10312-2 0  9991,2 55433  70.0032  40.9312 0002781 253.5879 106.4975 14.98349791 67909,6950.132,96.106,573.93,570.064,0.0
55433.0,STARLINK-5570,PAYLOAD,2024-04-20 05:02:16,14.98386456,0.0002544,70.0041,40.2582,248.041,112.0479,0.0018925,0.00022594,0.0,0 STARLINK-5570,1 55433U 23014AU  24111.20991165  .00022594  00000-0  18925-2 0  9991,2 55433  70.0041  40.2582 0002544 248.0410 112.0479 14.98386456 67000,6950.018,96.103,573.651,570.115,0.0
55433.0,STARLINK-5570,PAYLOAD,2024-04-20 19:27:29,14.98351007,0.0002279,70.0041,38.7427,252.9173,107.1736,2.8866e-05,2.52e-06,0.0,0 STARLINK-5570,1 55433U 23014AU  24111.81075257  .00000252  00000-0  28866-4 0  9997,2 55433  70.0041  38.7427 0002279 252.9173 107.1736 14.98351007 67099,6950.128,96.106,573.577,570.409,0.0
55433.0,STARLINK-5570,PAYLOAD,2024-04-20 21:03:37,14.9831223,0.0002551,70.0043,38.5744,265.192,94.8948,-0.00063101,-7.61e-05,0.0,0 STARLINK-5570,1 55433U 23014AU  24111.87751600 -.00007610  00000-0 -63101-3 0  9993,2 55433  70.0043  38.5744 0002551 265.1920  94.8948 14.98312230 68048,6950.248,96.108,573.886,570.34,0.0
55433.0,STARLINK-5570,PAYLOAD,2024-04-21 03:28:10,14.98305082,0.0002342,70.0044,37.9012,264.4275,95.6617,0.0012733,0.00015122,0.0,0 STARLINK-5570,1 55433U 23014AU  24112.14456144  .00015122  00000-0  12733-2 0  9998,2 55433  70.0044  37.9012 0002342 264.4275  95.6617 14.98305082 67142,6950.27,96.109,573.763,570.507,0.0
55433.0,STARLINK-5570,PAYLOAD,2024-04-21 05:04:18,14.98305213,0.0002405,70.0044,37.7331,265.6128,94.4756,0.0016931,0.00020153,0.0,0 STARLINK-5570,1 55433U 23014AU  24112.21132259  .00020153  00000-0  16931-2 0  9998,2 55433  70.0044  37.7331 0002405 265.6128  94.4756 14.98305213 68096,6950.27,96.109,573.806,570.463,0.0
55433.0,STARLINK-5570,PAYLOAD,2024-04-21 22:41:47,14.9834073,0.0002528,70.0043,35.8818,262.3611,97.7261,0.0018841,0.00022466,0.0,0 STARLINK-5570,1 55433U 23014AU  24112.94568494  .00022466  00000-0  18841-2 0  9993,2 55433  70.0043  35.8818 0002528 262.3611  97.7261 14.98340730 68204,6950.16,96.106,573.782,570.268,0.0
55433.0,STARLINK-5570,PAYLOAD,2024-04-22 05:06:19,14.98354765,0.000245,70.0045,35.2089,260.7313,99.3569,0.0019897,0.00023743,0.0,0 STARLINK-5570,1 55433U 23014AU  24113.21272140  .00023743  00000-0  19897-2 0  9995,2 55433  70.0045  35.2089 0002450 260.7313  99.3569 14.98354765 67307,6950.116,96.105,573.684,570.279,0.0
55433.0,STARLINK-5570,PAYLOAD,2024-04-22 19:31:31,14.98344775,0.0001634,70.0088,33.6981,242.9986,117.1006,0.00018064,2.064e-05,0.0,0 STARLINK-5570,1 55433U 23014AU  24113.81356205  .00002064  00000-0  18064-3 0  9995,2 55433  70.0088  33.6981 0001634 242.9986 117.1006 14.98344775 67392,6950.147,96.106,573.148,570.877,0.0
55433.0,STARLINK-5570,PAYLOAD,2024-04-22 22:43:48,14.98335974,0.0001863,70.007,33.3623,241.1766,118.9207,0.0001058,1.17e-05,0.0,0 STARLINK-5570,1 55433U 23014AU  24113.94708341  .00001170  00000-0  10580-3 0  9993,2 55433  70.0070  33.3623 0001863 241.1766 118.9207 14.98335974 68354,6950.174,96.107,573.334,570.745,0.0
55433.0,STARLINK-5570,PAYLOAD,2024-04-23 03:32:12,14.98330617,0.0002116,70.0053,32.8558,245.1656,114.9283,0.00029988,3.487e-05,0.0,0 STARLINK-5570,1 55433U 23014AU  24114.14736584  .00003487  00000-0  29988-3 0  9991,2 55433  70.0053  32.8558 0002116 245.1656 114.9283 14.98330617 67448,6950.191,96.107,573.527,570.585,0.0
55433.0,STARLINK-5570,PAYLOAD,2024-04-23 05:08:20,14.98333957,0.000229,70.0043,32.686,256.8707,103.2197,0.00035658,4.165e-05,0.0,0 STARLINK-5570,1 55433U 23014AU  24114.21412454  .00004165  00000-0  35658-3 0  9991,2 55433  70.0043  32.6860 0002290 256.8707 103.2197 14.98333957 68390,6950.181,96.107,573.637,570.454,0.0
55433.0,STARLINK-5570,PAYLOAD,2024-04-23 21:09:40,14.98344,0.0002454,70.004,31.0035,252.2883,107.8008,-0.00015373,-1.927e-05,0.0,0 STARLINK-5570,1 55433U 23014AU  24114.88171596 -.00001927  00000-0 -15373-3 0  9990,2 55433  70.0040  31.0035 0002454 252.2883 107.8008 14.98344000 67550,6950.15,96.106,573.72,570.309,0.0
55433.0,STARLINK-5570,PAYLOAD,2024-04-23 22:45:48,14.9833811,0.0002493,70.0039,30.835,254.9027,105.1856,0.00019483,2.233e-05,0.0,0 STARLINK-5570,1 55433U 23014AU  24114.94847959  .00002233  00000-0  19483-3 0  9995,2 55433  70.0039  30.8350 0002493 254.9027 105.1856 14.98338110 68500,6950.168,96.106,573.765,570.3,0.0
55433.0,STARLINK-5570,PAYLOAD,2024-04-24 03:34:12,14.98342905,0.0002442,70.0044,30.3299,247.8433,112.2467,0.00024307,2.809e-05,0.0,0 STARLINK-5570,1 55433U 23014AU  24115.14875627  .00002809  00000-0  24307-3 0  9991,2 55433  70.0044  30.3299 0002442 247.8433 112.2467 14.98342905 68536,6950.153,96.106,573.715,570.321,0.0
55433.0,STARLINK-5570,PAYLOAD,2024-04-24 21:11:41,14.98333522,0.0002908,70.006,28.4814,208.7928,151.3071,0.00013069,1.467e-05,0.0,0 STARLINK-5570,1 55433U 23014AU  24115.88312010  .00001467  00000-0  13069-3 0  9996,2 55433  70.0060  28.4814 0002908 208.7928 151.3071 14.98333522 67705,6950.182,96.107,574.068,570.026,0.0
55433.0,STARLINK-5570,PAYLOAD,2024-04-25 03:36:14,14.98331852,0.0003057,70.0022,27.8037,263.0892,96.992,5.7093e-05,5.88e-06,0.0,0 STARLINK-5570,1 55433U 23014AU  24116.15016245  .00000588  00000-0  57093-4 0  9997,2 55433  70.0022  27.8037 0003057 263.0892  96.9920 14.98331852 67748,6950.187,96.107,574.177,569.927,0.0
55433.0,STARLINK-5570,PAYLOAD,2024-04-25 22:49:50,14.98334406,0.0003008,70.0025,25.7838,260.7038,99.3781,0.00013536,1.523e-05,0.0,0 STARLINK-5570,1 55433U 23014AU  24116.95128242  .00001523  00000-0  13536-3 0  9999,2 55433  70.0025  25.7838 0003008 260.7038  99.3781 14.98334406 68807,6950.179,96.107,574.135,569.954,0.0
55433.0,STARLINK-5570,PAYLOAD,2024-04-26 03:38:14,14.98340489,0.0002761,70.0033,25.2807,246.2952,113.7917,0.00023613,2.726e-05,0.0,0 STARLINK-5570,1 55433U 23014AU  24117.15155800  .00002726  00000-0  23613-3 0  9995,2 55433  70.0033  25.2807 0002761 246.2952 113.7917 14.98340489 67894,6950.16,96.106,573.944,570.107,0.0
55433.0,STARLINK-5570,PAYLOAD,2024-04-26 11:38:54,14.98339889,0.0002406,70.0041,24.4365,286.6968,73.3927,0.00015013,1.699e-05,0.0,0 STARLINK-5570,1 55433U 23014AU  24117.48535848  .00001699  00000-0  15013-3 0  9998,2 55433  70.0041  24.4365 0002406 286.6968  73.3927 14.98339889 68888,6950.162,96.106,573.7,570.355,0.0
